[
    {
        "Altitude(m)": 557354.4005580975,
        "Argument of Periapsis(deg)": 0.013245982221427002,
        "Eccentricity": 0.0,
        "Inclination(deg)": 53.0,
        "Latitude(deg)": 41.92571191388467,
        "Longitude(deg)": 40.72464417050861,
        "Mean Anomaly(deg)": 56.54688573515517,
        "RAAN(deg)": 99.98028673705603,
        "Satellite Name": "Starlink Shell 1 442",
        "Satellite Number": 442,
        "Semi-Major Axis(m)": 6931778.249405717,
        "Time(s)": 380
    },
    {
        "Altitude(m)": 557435.2877876539,
        "Argument of Periapsis(deg)": 0.013594560700938237,
        "Eccentricity": 0.0,
        "Inclination(deg)": 53.0,
        "Latitude(deg)": 42.29481571019761,
        "Longitude(deg)": 41.36564710553864,
        "Mean Anomaly(deg)": 57.17371693871189,
        "RAAN(deg)": 99.97976796697857,
        "Satellite Name": "Starlink Shell 1 442",
        "Satellite Number": 442,
        "Semi-Major Axis(m)": 6931778.249405717,
        "Time(s)": 390
    },
    {
        "Altitude(m)": 557515.6231114637,
        "Argument of Periapsis(deg)": 0.013943139180449475,
        "Eccentricity": 0.0,
        "Inclination(deg)": 53.0,
        "Latitude(deg)": 42.65978960876228,
        "Longitude(deg)": 42.01461168690479,
        "Mean Anomaly(deg)": 57.800548142268596,
        "RAAN(deg)": 99.97924919690108,
        "Satellite Name": "Starlink Shell 1 442",
        "Satellite Number": 442,
        "Semi-Major Axis(m)": 6931778.249405717,
        "Time(s)": 400
    },
    {
        "Altitude(m)": 557595.3554685601,
        "Argument of Periapsis(deg)": 0.014291717659960712,
        "Eccentricity": 0.0,
        "Inclination(deg)": 53.0,
        "Latitude(deg)": 43.02053316090164,
        "Longitude(deg)": 42.671642368952135,
        "Mean Anomaly(deg)": 58.42737934582531,
        "RAAN(deg)": 99.9787304268236,
        "Satellite Name": "Starlink Shell 1 442",
        "Satellite Number": 442,
        "Semi-Major Axis(m)": 6931778.249405717,
        "Time(s)": 410
    },
    {
        "Altitude(m)": 557674.4343137807,
        "Argument of Periapsis(deg)": 0.014640296139471948,
        "Eccentricity": 0.0,
        "Inclination(deg)": 53.0,
        "Latitude(deg)": 43.37694408444424,
        "Longitude(deg)": 43.33683985351694,
        "Mean Anomaly(deg)": 59.054210549382056,
        "RAAN(deg)": 99.97821165674615,
        "Satellite Name": "Starlink Shell 1 442",
        "Satellite Number": 442,
        "Semi-Major Axis(m)": 6931778.249405717,
        "Time(s)": 420
    },
    {
        "Altitude(m)": 557752.8096431715,
        "Argument of Periapsis(deg)": 0.014988874618983185,
        "Eccentricity": 0.0,
        "Inclination(deg)": 53.0,
        "Latitude(deg)": 43.72891828340166,
        "Longitude(deg)": 44.01030122020459,
        "Mean Anomaly(deg)": 59.68104175293876,
        "RAAN(deg)": 99.97769288666868,
        "Satellite Name": "Starlink Shell 1 442",
        "Satellite Number": 442,
        "Semi-Major Axis(m)": 6931778.249405717,
        "Time(s)": 430
    },
    {
        "Altitude(m)": 557830.432019091,
        "Argument of Periapsis(deg)": 0.015337453098494424,
        "Eccentricity": 0.0,
        "Inclination(deg)": 53.0,
        "Latitude(deg)": 44.07634987352102,
        "Longitude(deg)": 44.692120037974526,
        "Mean Anomaly(deg)": 60.30787295649547,
        "RAAN(deg)": 99.9771741165912,
        "Satellite Name": "Starlink Shell 1 442",
        "Satellite Number": 442,
        "Semi-Major Axis(m)": 6931778.249405717,
        "Time(s)": 440
    },
    {
        "Altitude(m)": 557907.252594973,
        "Argument of Periapsis(deg)": 0.01568603157800566,
        "Eccentricity": 0.0,
        "Inclination(deg)": 53.0,
        "Latitude(deg)": 44.41913121412368,
        "Longitude(deg)": 45.38238494526667,
        "Mean Anomaly(deg)": 60.93470416005217,
        "RAAN(deg)": 99.97665534651372,
        "Satellite Name": "Starlink Shell 1 442",
        "Satellite Number": 442,
        "Semi-Major Axis(m)": 6931778.249405717,
        "Time(s)": 450
    },
    {
        "Altitude(m)": 557983.2231398283,
        "Argument of Periapsis(deg)": 0.0160346100575169,
        "Eccentricity": 0.0,
        "Inclination(deg)": 53.0,
        "Latitude(deg)": 44.757152946655495,
        "Longitude(deg)": 46.08117972466748,
        "Mean Anomaly(deg)": 61.561535363608876,
        "RAAN(deg)": 99.97613657643625,
        "Satellite Name": "Starlink Shell 1 442",
        "Satellite Number": 442,
        "Semi-Major Axis(m)": 6931778.249405717,
        "Time(s)": 460
    },
    {
        "Altitude(m)": 558058.2960623472,
        "Argument of Periapsis(deg)": 0.016383188537028134,
        "Eccentricity": 0.0,
        "Inclination(deg)": 53.0,
        "Latitude(deg)": 45.090304040372764,
        "Longitude(deg)": 46.78858335964521,
        "Mean Anomaly(deg)": 62.1883665671656,
        "RAAN(deg)": 99.97561780635877,
        "Satellite Name": "Starlink Shell 1 442",
        "Satellite Number": 442,
        "Semi-Major Axis(m)": 6931778.249405717,
        "Time(s)": 470
    },
    {
        "Altitude(m)": 558132.4244346791,
        "Argument of Periapsis(deg)": 0.01673176701653937,
        "Eccentricity": 0.0,
        "Inclination(deg)": 53.0,
        "Latitude(deg)": 45.41847184558922,
        "Longitude(deg)": 47.50466856105338,
        "Mean Anomaly(deg)": 62.8151977707223,
        "RAAN(deg)": 99.97509903628132,
        "Satellite Name": "Starlink Shell 1 442",
        "Satellite Number": 442,
        "Semi-Major Axis(m)": 6931778.249405717,
        "Time(s)": 480
    },
    {
        "Altitude(m)": 558205.5620158749,
        "Argument of Periapsis(deg)": 0.017080345496050607,
        "Eccentricity": 0.0,
        "Inclination(deg)": 53.0,
        "Latitude(deg)": 45.741542154915635,
        "Longitude(deg)": 48.22950178991574,
        "Mean Anomaly(deg)": 63.44202897427904,
        "RAAN(deg)": 99.97458026620384,
        "Satellite Name": "Starlink Shell 1 442",
        "Satellite Number": 442,
        "Semi-Major Axis(m)": 6931778.249405717,
        "Time(s)": 490
    },
    {
        "Altitude(m)": 558277.6632749229,
        "Argument of Periapsis(deg)": 0.017428923975561842,
        "Eccentricity": 0.0,
        "Inclination(deg)": 53.0,
        "Latitude(deg)": 46.05939927291188,
        "Longitude(deg)": 48.96314326458272,
        "Mean Anomaly(deg)": 64.06886017783575,
        "RAAN(deg)": 99.97406149612637,
        "Satellite Name": "Starlink Shell 1 442",
        "Satellite Number": 442,
        "Semi-Major Axis(m)": 6931778.249405717,
        "Time(s)": 500
    },
    {
        "Altitude(m)": 558348.6834134486,
        "Argument of Periapsis(deg)": 0.01777750245507308,
        "Eccentricity": 0.0,
        "Inclination(deg)": 53.0,
        "Latitude(deg)": 46.371926094562475,
        "Longitude(deg)": 49.70564544057211,
        "Mean Anomaly(deg)": 64.69569138139246,
        "RAAN(deg)": 99.97354272604889,
        "Satellite Name": "Starlink Shell 1 442",
        "Satellite Number": 442,
        "Semi-Major Axis(m)": 6931778.249405717,
        "Time(s)": 510
    },
    {
        "Altitude(m)": 558418.5783879798,
        "Argument of Periapsis(deg)": 0.018126080934584315,
        "Eccentricity": 0.0,
        "Inclination(deg)": 53.0,
        "Latitude(deg)": 46.67900419297929,
        "Longitude(deg)": 50.457052990263946,
        "Mean Anomaly(deg)": 65.3225225849492,
        "RAAN(deg)": 99.97302395597141,
        "Satellite Name": "Starlink Shell 1 442",
        "Satellite Number": 442,
        "Semi-Major Axis(m)": 6931778.249405717,
        "Time(s)": 520
    },
    {
        "Altitude(m)": 558487.3049318716,
        "Argument of Periapsis(deg)": 0.018474659414095554,
        "Eccentricity": 0.0,
        "Inclination(deg)": 53.0,
        "Latitude(deg)": 46.980513916711224,
        "Longitude(deg)": 51.21740277124908,
        "Mean Anomaly(deg)": 65.94935378850592,
        "RAAN(deg)": 99.97250518589394,
        "Satellite Name": "Starlink Shell 1 442",
        "Satellite Number": 442,
        "Semi-Major Axis(m)": 6931778.249405717,
        "Time(s)": 530
    },
    {
        "Altitude(m)": 558554.8205767615,
        "Argument of Periapsis(deg)": 0.018823237893606792,
        "Eccentricity": 0.0,
        "Inclination(deg)": 53.0,
        "Latitude(deg)": 47.27633449701518,
        "Longitude(deg)": 51.98672227239075,
        "Mean Anomaly(deg)": 66.57618499206261,
        "RAAN(deg)": 99.97198641581649,
        "Satellite Name": "Starlink Shell 1 442",
        "Satellite Number": 442,
        "Semi-Major Axis(m)": 6931778.249405717,
        "Time(s)": 540
    },
    {
        "Altitude(m)": 558621.0836736604,
        "Argument of Periapsis(deg)": 0.019171816373118027,
        "Eccentricity": 0.0,
        "Inclination(deg)": 53.0,
        "Latitude(deg)": 47.56634416542065,
        "Longitude(deg)": 52.76502956556261,
        "Mean Anomaly(deg)": 67.20301619561931,
        "RAAN(deg)": 99.97146764573901,
        "Satellite Name": "Starlink Shell 1 442",
        "Satellite Number": 442,
        "Semi-Major Axis(m)": 6931778.249405717,
        "Time(s)": 550
    },
    {
        "Altitude(m)": 558686.0534135815,
        "Argument of Periapsis(deg)": 0.019520394852629266,
        "Eccentricity": 0.0,
        "Inclination(deg)": 53.0,
        "Latitude(deg)": 47.85042028187694,
        "Longitude(deg)": 53.55233325268532,
        "Mean Anomaly(deg)": 67.82984739917603,
        "RAAN(deg)": 99.97094887566153,
        "Satellite Name": "Starlink Shell 1 442",
        "Satellite Number": 442,
        "Semi-Major Axis(m)": 6931778.249405717,
        "Time(s)": 560
    }
]